[{"OBJECT_NAME":"EOSSAT-1","OBJECT_ID":"2023-001AW","EPOCH":"2026-03-09T17:40:07.010400","MEAN_MOTION":15.32339828,"ECCENTRICITY":0.00112629,"INCLINATION":97.3357,"RA_OF_ASC_NODE":130.2294,"ARG_OF_PERICENTER":110.3168,"MEAN_ANOMALY":249.9285,"EPHEMERIS_TYPE":0,"CLASSIFICATION_TYPE":"U","NORAD_CAT_ID":55053,"ELEMENT_SET_NO":999,"REV_AT_EPOCH":17668,"BSTAR":0.00024844399,"MEAN_MOTION_DOT":7.695e-5,"MEAN_MOTION_DDOT":0},{"OBJECT_NAME":"STARLINK-33913","OBJECT_ID":"2025-176T","EPOCH":"2026-03-09T11:23:16.276416","MEAN_MOTION":15.30178168,"ECCENTRICITY":0.00011604,"INCLINATION":53.1584,"RA_OF_ASC_NODE":156.1278,"ARG_OF_PERICENTER":63.2631,"MEAN_ANOMALY":296.8489,"EPHEMERIS_TYPE":0,"CLASSIFICATION_TYPE":"U","NORAD_CAT_ID":65215,"ELEMENT_SET_NO":999,"REV_AT_EPOCH":3305,"BSTAR":0.000851099,"MEAN_MOTION_DOT":0.00024915,"MEAN_MOTION_DDOT":0}]
